[{"OBJECT_NAME":"HULIANWANG DIGUI-113","OBJECT_ID":"2025-285J","EPOCH":"2026-03-04T14:38:16.699200","MEAN_MOTION":13.29331192,"ECCENTRICITY":3.84e-6,"INCLINATION":50.0097,"RA_OF_ASC_NODE":160.7327,"ARG_OF_PERICENTER":331.8621,"MEAN_ANOMALY":28.2249,"EPHEMERIS_TYPE":0,"CLASSIFICATION_TYPE":"U","NORAD_CAT_ID":66923,"ELEMENT_SET_NO":999,"REV_AT_EPOCH":1215,"BSTAR":-0.000181592,"MEAN_MOTION_DOT":-2.08e-6,"MEAN_MOTION_DDOT":0},{"OBJECT_NAME":"HULIANWANG DIGUI-114","OBJECT_ID":"2025-287A","EPOCH":"2026-03-04T14:00:00.328896","MEAN_MOTION":13.24415648,"ECCENTRICITY":0.00019787,"INCLINATION":86.4976,"RA_OF_ASC_NODE":317.7346,"ARG_OF_PERICENTER":80.6636,"MEAN_ANOMALY":279.4722,"EPHEMERIS_TYPE":0,"CLASSIFICATION_TYPE":"U","NORAD_CAT_ID":66953,"ELEMENT_SET_NO":999,"REV_AT_EPOCH":1149,"BSTAR":0.00017618171,"MEAN_MOTION_DOT":9.0e-7,"MEAN_MOTION_DDOT":0},{"OBJECT_NAME":"HULIANWANG DIGUI-115","OBJECT_ID":"2025-287B","EPOCH":"2026-03-04T15:37:53.447520","MEAN_MOTION":13.2441573,"ECCENTRICITY":0.00020548,"INCLINATION":86.4991,"RA_OF_ASC_NODE":317.7206,"ARG_OF_PERICENTER":80.142,"MEAN_ANOMALY":279.9946,"EPHEMERIS_TYPE":0,"CLASSIFICATION_TYPE":"U","NORAD_CAT_ID":66954,"ELEMENT_SET_NO":999,"REV_AT_EPOCH":1150,"BSTAR":0.00018960089,"MEAN_MOTION_DOT":9.6e-7,"MEAN_MOTION_DDOT":0},{"OBJECT_NAME":"HULIANWANG DIGUI-116","OBJECT_ID":"2025-287C","EPOCH":"2026-03-04T15:27:01.412640","MEAN_MOTION":13.24415802,"ECCENTRICITY":0.00020634,"INCLINATION":86.4931,"RA_OF_ASC_NODE":317.6601,"ARG_OF_PERICENTER":80.2543,"MEAN_ANOMALY":279.8824,"EPHEMERIS_TYPE":0,"CLASSIFICATION_TYPE":"U","NORAD_CAT_ID":66955,"ELEMENT_SET_NO":999,"REV_AT_EPOCH":1150,"BSTAR":0.0001977111,"MEAN_MOTION_DOT":1.0e-6,"MEAN_MOTION_DDOT":0},{"OBJECT_NAME":"HULIANWANG DIGUI-117","OBJECT_ID":"2025-287D","EPOCH":"2026-03-04T15:16:12.031104","MEAN_MOTION":13.24413937,"ECCENTRICITY":0.00013174,"INCLINATION":86.4992,"RA_OF_ASC_NODE":317.7139,"ARG_OF_PERICENTER":22.0999,"MEAN_ANOMALY":338.0192,"EPHEMERIS_TYPE":0,"CLASSIFICATION_TYPE":"U","NORAD_CAT_ID":66956,"ELEMENT_SET_NO":999,"REV_AT_EPOCH":1150,"BSTAR":0.00018755416,"MEAN_MOTION_DOT":9.5e-7,"MEAN_MOTION_DDOT":0},{"OBJECT_NAME":"HULIANWANG DIGUI-118","OBJECT_ID":"2025-287E","EPOCH":"2026-03-04T15:05:17.945952","MEAN_MOTION":13.24415248,"ECCENTRICITY":0.00020414,"INCLINATION":86.4967,"RA_OF_ASC_NODE":317.688,"ARG_OF_PERICENTER":79.9628,"MEAN_ANOMALY":280.1736,"EPHEMERIS_TYPE":0,"CLASSIFICATION_TYPE":"U","NORAD_CAT_ID":66957,"ELEMENT_SET_NO":999,"REV_AT_EPOCH":1150,"BSTAR":0.00017787755,"MEAN_MOTION_DOT":9.1e-7,"MEAN_MOTION_DDOT":0},{"OBJECT_NAME":"HULIANWANG DIGUI-119","OBJECT_ID":"2025-295A","EPOCH":"2026-03-03T01:44:58.227360","MEAN_MOTION":13.51029834,"ECCENTRICITY":6.09e-5,"INCLINATION":50.0099,"RA_OF_ASC_NODE":47.5635,"ARG_OF_PERICENTER":106.8761,"MEAN_ANOMALY":253.2187,"EPHEMERIS_TYPE":0,"CLASSIFICATION_TYPE":"U","NORAD_CAT_ID":67059,"ELEMENT_SET_NO":999,"REV_AT_EPOCH":1136,"BSTAR":0.00010846,"MEAN_MOTION_DOT":-6.1e-7,"MEAN_MOTION_DDOT":0},{"OBJECT_NAME":"HULIANWANG DIGUI-120","OBJECT_ID":"2025-295B","EPOCH":"2026-03-03T19:11:55.421664","MEAN_MOTION":13.50760701,"ECCENTRICITY":0.00010899,"INCLINATION":50.0053,"RA_OF_ASC_NODE":44.769,"ARG_OF_PERICENTER":322.3204,"MEAN_ANOMALY":37.7601,"EPHEMERIS_TYPE":0,"CLASSIFICATION_TYPE":"U","NORAD_CAT_ID":67060,"ELEMENT_SET_NO":999,"REV_AT_EPOCH":1146,"BSTAR":0.00010823522,"MEAN_MOTION_DOT":-6.2e-7,"MEAN_MOTION_DDOT":0},{"OBJECT_NAME":"HULIANWANG DIGUI-121","OBJECT_ID":"2025-295C","EPOCH":"2026-03-04T04:14:38.204448","MEAN_MOTION":13.49700373,"ECCENTRICITY":7.553e-5,"INCLINATION":50.0101,"RA_OF_ASC_NODE":43.3832,"ARG_OF_PERICENTER":248.9318,"MEAN_ANOMALY":111.1482,"EPHEMERIS_TYPE":0,"CLASSIFICATION_TYPE":"U","NORAD_CAT_ID":67061,"ELEMENT_SET_NO":999,"REV_AT_EPOCH":1151,"BSTAR":0.00011182782,"MEAN_MOTION_DOT":-6.0e-7,"MEAN_MOTION_DDOT":0},{"OBJECT_NAME":"HULIANWANG DIGUI-122","OBJECT_ID":"2025-295D","EPOCH":"2026-03-04T00:21:38.402784","MEAN_MOTION":13.50482229,"ECCENTRICITY":0.00142795,"INCLINATION":50.0136,"RA_OF_ASC_NODE":43.7171,"ARG_OF_PERICENTER":184.5559,"MEAN_ANOMALY":175.5195,"EPHEMERIS_TYPE":0,"CLASSIFICATION_TYPE":"U","NORAD_CAT_ID":67062,"ELEMENT_SET_NO":999,"REV_AT_EPOCH":1149,"BSTAR":0.00010593714,"MEAN_MOTION_DOT":-6.3e-7,"MEAN_MOTION_DDOT":0},{"OBJECT_NAME":"HULIANWANG DIGUI-123","OBJECT_ID":"2025-295E","EPOCH":"2026-03-03T04:39:39.508992","MEAN_MOTION":13.51163893,"ECCENTRICITY":7.42e-5,"INCLINATION":50.0058,"RA_OF_ASC_NODE":46.9026,"ARG_OF_PERICENTER":273.8979,"MEAN_ANOMALY":86.1818,"EPHEMERIS_TYPE":0,"CLASSIFICATION_TYPE":"U","NORAD_CAT_ID":67063,"ELEMENT_SET_NO":999,"REV_AT_EPOCH":1138,"BSTAR":0.00013716,"MEAN_MOTION_DOT":-4.2e-7,"MEAN_MOTION_DDOT":0},{"OBJECT_NAME":"HULIANWANG DIGUI-124","OBJECT_ID":"2025-295F","EPOCH":"2026-03-03T20:29:47.961312","MEAN_MOTION":13.51154708,"ECCENTRICITY":6.34e-5,"INCLINATION":50.0011,"RA_OF_ASC_NODE":44.349,"ARG_OF_PERICENTER":348.9504,"MEAN_ANOMALY":11.1363,"EPHEMERIS_TYPE":0,"CLASSIFICATION_TYPE":"U","NORAD_CAT_ID":67064,"ELEMENT_SET_NO":999,"REV_AT_EPOCH":1147,"BSTAR":0.00011422,"MEAN_MOTION_DOT":-5.7e-7,"MEAN_MOTION_DDOT":0},{"OBJECT_NAME":"HULIANWANG DIGUI-125","OBJECT_ID":"2025-295G","EPOCH":"2026-03-03T20:20:19.764672","MEAN_MOTION":13.51200294,"ECCENTRICITY":0.0001264,"INCLINATION":49.9987,"RA_OF_ASC_NODE":44.3079,"ARG_OF_PERICENTER":15.7402,"MEAN_ANOMALY":344.3519,"EPHEMERIS_TYPE":0,"CLASSIFICATION_TYPE":"U","NORAD_CAT_ID":67065,"ELEMENT_SET_NO":999,"REV_AT_EPOCH":1147,"BSTAR":0.00011281,"MEAN_MOTION_DOT":-5.8e-7,"MEAN_MOTION_DDOT":0},{"OBJECT_NAME":"HULIANWANG DIGUI-126","OBJECT_ID":"2025-295H","EPOCH":"2026-03-03T07:44:21.704352","MEAN_MOTION":13.51245278,"ECCENTRICITY":0.0001436,"INCLINATION":49.9966,"RA_OF_ASC_NODE":46.1982,"ARG_OF_PERICENTER":46.9301,"MEAN_ANOMALY":313.17,"EPHEMERIS_TYPE":0,"CLASSIFICATION_TYPE":"U","NORAD_CAT_ID":67066,"ELEMENT_SET_NO":999,"REV_AT_EPOCH":1140,"BSTAR":7.9664e-5,"MEAN_MOTION_DOT":-8.0e-7,"MEAN_MOTION_DDOT":0},{"OBJECT_NAME":"HULIANWANG DIGUI-127","OBJECT_ID":"2025-295J","EPOCH":"2026-03-04T01:14:23.317728","MEAN_MOTION":13.50551855,"ECCENTRICITY":9.005e-5,"INCLINATION":50.0077,"RA_OF_ASC_NODE":43.3946,"ARG_OF_PERICENTER":23.0313,"MEAN_ANOMALY":337.0609,"EPHEMERIS_TYPE":0,"CLASSIFICATION_TYPE":"U","NORAD_CAT_ID":67067,"ELEMENT_SET_NO":999,"REV_AT_EPOCH":1150,"BSTAR":-0.00030217617,"MEAN_MOTION_DOT":-3.26e-6,"MEAN_MOTION_DDOT":0},{"OBJECT_NAME":"HULIANWANG DIGUI-128","OBJECT_ID":"2025-311A","EPOCH":"2026-03-03T08:20:00.446496","MEAN_MOTION":13.35891953,"ECCENTRICITY":0.0002353,"INCLINATION":50.0101,"RA_OF_ASC_NODE":135.2234,"ARG_OF_PERICENTER":353.5774,"MEAN_ANOMALY":6.5071,"EPHEMERIS_TYPE":0,"CLASSIFICATION_TYPE":"U","NORAD_CAT_ID":67236,"ELEMENT_SET_NO":999,"REV_AT_EPOCH":926,"BSTAR":0.00012954,"MEAN_MOTION_DOT":-6.0e-7,"MEAN_MOTION_DDOT":0}]
