HULIANWANG DIGUI-113    
1 66923U 25285J   26063.60991550 -.00000208  00000+0 -18159-3 0  9998
2 66923  50.0097 160.7327 0000038 331.8621  28.2249 13.29331192 12150
HULIANWANG DIGUI-114    
1 66953U 25287A   26063.58333714  .00000090  00000+0  17618-3 0  9998
2 66953  86.4976 317.7346 0001978  80.6636 279.4722 13.24415648 11492
HULIANWANG DIGUI-115    
1 66954U 25287B   26063.65131305  .00000096  00000+0  18960-3 0  9996
2 66954  86.4991 317.7206 0002054  80.1420 279.9946 13.24415730 11504
HULIANWANG DIGUI-116    
1 66955U 25287C   26063.64376635  .00000100  00000+0  19771-3 0  9990
2 66955  86.4931 317.6601 0002063  80.2543 279.8824 13.24415802 11508
HULIANWANG DIGUI-117    
1 66956U 25287D   26063.63625036  .00000095  00000+0  18755-3 0  9996
2 66956  86.4992 317.7139 0001317  22.0999 338.0192 13.24413937 11506
HULIANWANG DIGUI-118    
1 66957U 25287E   26063.62867993  .00000091  00000+0  17788-3 0  9997
2 66957  86.4967 317.6880 0002041  79.9628 280.1736 13.24415248 11504
HULIANWANG DIGUI-119    
1 67059U 25295A   26062.07289615 -.00000061  00000+0  10846-3 0  9993
2 67059  50.0099  47.5635 0000609 106.8761 253.2187 13.51029834 11361
HULIANWANG DIGUI-120    
1 67060U 25295B   26062.79994701 -.00000062  00000+0  10824-3 0  9990
2 67060  50.0053  44.7690 0001089 322.3204  37.7601 13.50760701 11464
HULIANWANG DIGUI-121    
1 67061U 25295C   26063.17683107 -.00000060  00000+0  11183-3 0  9996
2 67061  50.0101  43.3832 0000755 248.9318 111.1482 13.49700373 11517
HULIANWANG DIGUI-122    
1 67062U 25295D   26063.01502781 -.00000063  00000+0  10594-3 0  9996
2 67062  50.0136  43.7171 0014279 184.5559 175.5195 13.50482229 11495
HULIANWANG DIGUI-123    
1 67063U 25295E   26062.19420728 -.00000042  00000+0  13716-3 0  9991
2 67063  50.0058  46.9026 0000742 273.8979  86.1818 13.51163893 11382
HULIANWANG DIGUI-124    
1 67064U 25295F   26062.85402733 -.00000057  00000+0  11422-3 0  9999
2 67064  50.0011  44.3490 0000634 348.9504  11.1363 13.51154708 11475
HULIANWANG DIGUI-125    
1 67065U 25295G   26062.84745098 -.00000058  00000+0  11281-3 0  9997
2 67065  49.9987  44.3079 0001264  15.7402 344.3519 13.51200294 11470
HULIANWANG DIGUI-126    
1 67066U 25295H   26062.32247343 -.00000080  00000+0  79664-4 0  9996
2 67066  49.9966  46.1982 0001436  46.9301 313.1700 13.51245278 11406
HULIANWANG DIGUI-127    
1 67067U 25295J   26063.05165877 -.00000326  00000+0 -30218-3 0  9994
2 67067  50.0077  43.3946 0000900  23.0313 337.0609 13.50551855 11500
HULIANWANG DIGUI-128    
1 67236U 25311A   26062.34722739 -.00000060  00000+0  12954-3 0  9999
2 67236  50.0101 135.2234 0002353 353.5774   6.5071 13.35891953  9263
